{"norad_cat_id":"46497","object_name":"ICEYE-X6","object_id":"2020-068M","object_type":"PAYLOAD","country_code":"FIN","epoch":"2026-05-30T05:36:32.072256","creation_date":"2026-05-30T07:26:56","launch_date":"2020-09-28","decay_date":null,"inclination":98.0972,"eccentricity":0.0008468,"mean_motion":15.0441672,"period":95.718,"semimajor_axis":6931.434,"apoapsis":559.168,"periapsis":547.429,"tle_line0":"0 ICEYE-X6","tle_line1":"1 46497U 20068M   26150.23370454  .00003653  00000-0  26613-3 0  9996","tle_line2":"2 46497  98.0972 143.0501 0008468 138.3478 221.8393 15.04416720310531","fetched_at":"2026-05-30T16:18:06.042337+00:00"}
{"norad_cat_id":"28909","object_name":"GONETS D1M 1","object_id":"2005-048B","object_type":"PAYLOAD","country_code":"CIS","epoch":"2026-05-30T05:36:26.155584","creation_date":"2026-05-30T07:36:53","launch_date":"2005-12-21","decay_date":null,"inclination":82.4674,"eccentricity":0.0007627,"mean_motion":12.5529178,"period":114.714,"semimajor_axis":7820.576,"apoapsis":1448.405,"periapsis":1436.476,"tle_line0":"0 GONETS D1M 1","tle_line1":"1 28909U 05048B   26150.23363606 -.00000001  00000-0 -71592-4 0  9999","tle_line2":"2 28909  82.4674 321.7415 0007627 195.8889 288.6250 12.55291780936294","fetched_at":"2026-05-30T16:18:06.042337+00:00"}
{"norad_cat_id":"44907","object_name":"GONETS M 16 (M26)","object_id":"2019-096C","object_type":"PAYLOAD","country_code":"CIS","epoch":"2026-05-30T05:36:14.966784","creation_date":"2026-05-30T07:36:53","launch_date":"2019-12-26","decay_date":null,"inclination":82.5184,"eccentricity":0.0009583,"mean_motion":12.42890992,"period":115.859,"semimajor_axis":7872.509,"apoapsis":1501.918,"periapsis":1486.829,"tle_line0":"0 GONETS M 16 (M26)","tle_line1":"1 44907U 19096C   26150.23350656 -.00000042  00000-0 -37293-3 0  9998","tle_line2":"2 44907  82.5184  95.1893 0009583 258.2498 101.7506 12.42890992291404","fetched_at":"2026-05-30T16:18:06.042337+00:00"}
{"norad_cat_id":"50465","object_name":"ZY-1 02E","object_id":"2021-131A","object_type":"PAYLOAD","country_code":"PRC","epoch":"2026-05-30T05:35:56.306976","creation_date":"2026-05-30T07:36:53","launch_date":"2021-12-26","decay_date":null,"inclination":98.4438,"eccentricity":0.0001533,"mean_motion":14.3539175,"period":100.321,"semimajor_axis":7151.902,"apoapsis":774.863,"periapsis":772.67,"tle_line0":"0 ZY-1 02E","tle_line1":"1 50465U 21131A   26150.23329059  .00000086  00000-0  44995-4 0  9994","tle_line2":"2 50465  98.4438 227.7031 0001533 124.3913 235.7418 14.35391750231841","fetched_at":"2026-05-30T16:18:06.042337+00:00"}
{"norad_cat_id":"38010","object_name":"ELISA E12","object_id":"2011-076D","object_type":"PAYLOAD","country_code":"FR","epoch":"2026-05-30T05:35:29.362272","creation_date":"2026-05-30T07:26:56","launch_date":"2011-12-17","decay_date":null,"inclination":97.6407,"eccentricity":0.0001188,"mean_motion":14.92698395,"period":96.47,"semimajor_axis":6967.663,"apoapsis":590.356,"periapsis":588.7,"tle_line0":"0 ELISA E12","tle_line1":"1 38010U 11076D   26150.23297873  .00003423  00000-0  33712-3 0  9993","tle_line2":"2 38010  97.6407 176.7507 0001188 106.4462 253.6888 14.92698395776546","fetched_at":"2026-05-30T16:18:06.042337+00:00"}
{"norad_cat_id":"39761","object_name":"COSMOS 2496","object_id":"2014-028A","object_type":"PAYLOAD","country_code":"CIS","epoch":"2026-05-30T05:35:27.954816","creation_date":"2026-05-30T07:26:56","launch_date":"2014-05-23","decay_date":null,"inclination":82.4425,"eccentricity":0.0021035,"mean_motion":12.42877676,"period":115.86,"semimajor_axis":7872.565,"apoapsis":1510.99,"periapsis":1477.87,"tle_line0":"0 COSMOS 2496","tle_line1":"1 39761U 14028A   26150.23296244 -.00000066  00000-0 -55066-3 0  9996","tle_line2":"2 39761  82.4425 119.9760 0021035 116.0302 244.2946 12.42877676545285","fetched_at":"2026-05-30T16:18:06.042337+00:00"}
{"norad_cat_id":"49008","object_name":"FENGYUN 3E","object_id":"2021-062A","object_type":"PAYLOAD","country_code":"PRC","epoch":"2026-05-30T05:34:58.141632","creation_date":"2026-05-30T07:36:53","launch_date":"2021-07-04","decay_date":null,"inclination":98.7489,"eccentricity":0.0002532,"mean_motion":14.19901487,"period":101.415,"semimajor_axis":7203.823,"apoapsis":827.512,"periapsis":823.864,"tle_line0":"0 FENGYUN 3E","tle_line1":"1 49008U 21062A   26150.23261738 -.00000247  00000-0 -95644-4 0  9995","tle_line2":"2 49008  98.7489 153.8409 0002532 116.4022 243.7414 14.19901487254039","fetched_at":"2026-05-30T16:18:06.042337+00:00"}
{"norad_cat_id":"64587","object_name":"IRIDE-MS2-HEO-8","object_id":"2025-135BM","object_type":"PAYLOAD","country_code":"IT","epoch":"2026-05-30T05:33:54.605664","creation_date":"2026-05-30T07:46:57","launch_date":"2025-06-23","decay_date":null,"inclination":97.7719,"eccentricity":0.0002812,"mean_motion":14.91874636,"period":96.523,"semimajor_axis":6970.228,"apoapsis":594.053,"periapsis":590.132,"tle_line0":"0 IRIDE-MS2-HEO-8","tle_line1":"1 64587U 25135BM  26150.23188201  .00002040  00000-0  20742-3 0  9999","tle_line2":"2 64587  97.7719 264.9702 0002812  71.6365 288.5160 14.91874636 51222","fetched_at":"2026-05-30T16:18:06.042337+00:00"}
{"norad_cat_id":"36834","object_name":"YAOGAN 10","object_id":"2010-038A","object_type":"PAYLOAD","country_code":"PRC","epoch":"2026-05-30T05:32:36.156192","creation_date":"2026-05-30T07:26:56","launch_date":"2010-08-09","decay_date":null,"inclination":97.8982,"eccentricity":0.0001671,"mean_motion":14.85288663,"period":96.951,"semimajor_axis":6990.817,"apoapsis":613.85,"periapsis":611.514,"tle_line0":"0 YAOGAN 10","tle_line1":"1 36834U 10038A   26150.23097403  .00002986  00000-0  35394-3 0  9990","tle_line2":"2 36834  97.8982 173.7787 0001671  95.1347 333.7867 14.85288663854547","fetched_at":"2026-05-30T16:18:06.042337+00:00"}
{"norad_cat_id":"57582","object_name":"OBJECT C","object_id":"2023-117C","object_type":"UNKNOWN","country_code":"PRC","epoch":"2026-05-30T05:32:33.311040","creation_date":"2026-05-30T07:36:53","launch_date":"2023-08-10","decay_date":null,"inclination":97.4076,"eccentricity":0.0005049,"mean_motion":15.39778222,"period":93.52,"semimajor_axis":6824.902,"apoapsis":450.212,"periapsis":443.321,"tle_line0":"0 OBJECT C","tle_line1":"1 57582U 23117C   26150.23094110  .00031454  00000-0  79369-3 0  9999","tle_line2":"2 57582  97.4076 231.0246 0005049 300.6373  59.4375 15.39778222155808","fetched_at":"2026-05-30T16:18:06.042337+00:00"}
{"norad_cat_id":"37743","object_name":"GLOBALSTAR M081","object_id":"2011-033E","object_type":"PAYLOAD","country_code":"GLOB","epoch":"2026-05-30T05:31:56.748288","creation_date":"2026-05-30T07:26:56","launch_date":"2011-07-13","decay_date":null,"inclination":51.9957,"eccentricity":4.61e-05,"mean_motion":12.62264524,"period":114.081,"semimajor_axis":7791.748,"apoapsis":1413.973,"periapsis":1413.254,"tle_line0":"0 GLOBALSTAR M081","tle_line1":"1 37743U 11033E   26150.23051792 -.00000087  00000-0  92914-4 0  9990","tle_line2":"2 37743  51.9957 250.3158 0000461 124.9711 249.4312 12.62264524687675","fetched_at":"2026-05-30T16:18:06.042337+00:00"}
{"norad_cat_id":"33320","object_name":"HJ-1A","object_id":"2008-041A","object_type":"PAYLOAD","country_code":"PRC","epoch":"2026-05-30T05:31:39.298080","creation_date":"2026-05-30T07:26:56","launch_date":"2008-09-06","decay_date":null,"inclination":97.6669,"eccentricity":0.0018357,"mean_motion":14.8393987,"period":97.039,"semimajor_axis":6995.052,"apoapsis":629.758,"periapsis":604.077,"tle_line0":"0 HJ-1A","tle_line1":"1 33320U 08041A   26150.23031595  .00001291  00000-0  16109-3 0  9999","tle_line2":"2 33320  97.6669 136.7645 0018357 193.0679 167.0062 14.83939870955741","fetched_at":"2026-05-30T16:18:06.042337+00:00"}
{"norad_cat_id":"58500","object_name":"DOORY-SAT","object_id":"2023-188A","object_type":"PAYLOAD","country_code":"SKOR","epoch":"2026-05-30T05:31:32.492352","creation_date":"2026-05-30T07:36:53","launch_date":"2023-12-04","decay_date":null,"inclination":46.9825,"eccentricity":0.0008786,"mean_motion":14.80574765,"period":97.26,"semimajor_axis":7005.647,"apoapsis":633.668,"periapsis":621.357,"tle_line0":"0 DOORY-SAT","tle_line1":"1 58500U 23188A   26150.23023718  .00001574  00000-0  22934-3 0  9990","tle_line2":"2 58500  46.9825  22.7224 0008786 309.3704  50.6412 14.80574765134337","fetched_at":"2026-05-30T16:18:06.042337+00:00"}
{"norad_cat_id":"57832","object_name":"YAOGAN-40 01B","object_id":"2023-139C","object_type":"PAYLOAD","country_code":"PRC","epoch":"2026-05-30T05:31:19.187616","creation_date":"2026-05-30T07:36:53","launch_date":"2023-09-10","decay_date":null,"inclination":85.9903,"eccentricity":0.0001886,"mean_motion":14.1244482,"period":101.951,"semimajor_axis":7229.155,"apoapsis":852.383,"periapsis":849.656,"tle_line0":"0 YAOGAN-40 01B","tle_line1":"1 57832U 23139C   26150.23008319  .00000202  00000-0  99145-4 0  9999","tle_line2":"2 57832  85.9903 267.9893 0001886 104.5425 255.5967 14.12444820140171","fetched_at":"2026-05-30T16:18:06.042337+00:00"}
{"norad_cat_id":"57830","object_name":"YAOGAN-40 01A","object_id":"2023-139A","object_type":"PAYLOAD","country_code":"PRC","epoch":"2026-05-30T05:31:05.598624","creation_date":"2026-05-30T07:36:53","launch_date":"2023-09-10","decay_date":null,"inclination":85.9904,"eccentricity":0.0001922,"mean_motion":14.12443668,"period":101.951,"semimajor_axis":7229.159,"apoapsis":852.413,"periapsis":849.634,"tle_line0":"0 YAOGAN-40 01A","tle_line1":"1 57830U 23139A   26150.22992591  .00000139  00000-0  65141-4 0  9998","tle_line2":"2 57830  85.9904 268.0108 0001922 100.5234 259.6166 14.12443668140160","fetched_at":"2026-05-30T16:18:06.042337+00:00"}
